[{"OBJECT_NAME":"ONEWEB-0356","OBJECT_ID":"2021-090E","EPOCH":"2026-05-07T22:09:58.154400","MEAN_MOTION":13.20759159,"ECCENTRICITY":0.000263,"INCLINATION":87.9158,"RA_OF_ASC_NODE":282.4655,"ARG_OF_PERICENTER":103.5174,"MEAN_ANOMALY":256.6252,"EPHEMERIS_TYPE":0,"CLASSIFICATION_TYPE":"U","NORAD_CAT_ID":49283,"ELEMENT_SET_NO":999,"REV_AT_EPOCH":22451,"BSTAR":7.0956e-05,"MEAN_MOTION_DOT":4.2e-07,"MEAN_MOTION_DDOT":0.0},{"OBJECT_NAME":"ONEWEB-0358","OBJECT_ID":"2021-090F","EPOCH":"2026-05-07T22:53:01.174848","MEAN_MOTION":13.20806718,"ECCENTRICITY":0.0001932,"INCLINATION":87.9162,"RA_OF_ASC_NODE":282.4637,"ARG_OF_PERICENTER":100.4518,"MEAN_ANOMALY":259.6833,"EPHEMERIS_TYPE":0,"CLASSIFICATION_TYPE":"U","NORAD_CAT_ID":49284,"ELEMENT_SET_NO":999,"REV_AT_EPOCH":22524,"BSTAR":0.0054368,"MEAN_MOTION_DOT":2.225e-05,"MEAN_MOTION_DDOT":0.0},{"OBJECT_NAME":"ONEWEB-0359","OBJECT_ID":"2021-090G","EPOCH":"2026-05-07T22:48:37.206432","MEAN_MOTION":13.20728568,"ECCENTRICITY":0.0001716,"INCLINATION":87.9156,"RA_OF_ASC_NODE":282.4607,"ARG_OF_PERICENTER":104.6943,"MEAN_ANOMALY":255.4381,"EPHEMERIS_TYPE":0,"CLASSIFICATION_TYPE":"U","NORAD_CAT_ID":49285,"ELEMENT_SET_NO":999,"REV_AT_EPOCH":22522,"BSTAR":0.0067799,"MEAN_MOTION_DOT":2.769e-05,"MEAN_MOTION_DDOT":0.0},{"OBJECT_NAME":"ONEWEB-0360","OBJECT_ID":"2021-090H","EPOCH":"2026-05-07T22:34:51.159360","MEAN_MOTION":13.20801854,"ECCENTRICITY":0.0001752,"INCLINATION":87.9155,"RA_OF_ASC_NODE":282.4695,"ARG_OF_PERICENTER":101.7088,"MEAN_ANOMALY":258.4242,"EPHEMERIS_TYPE":0,"CLASSIFICATION_TYPE":"U","NORAD_CAT_ID":49286,"ELEMENT_SET_NO":999,"REV_AT_EPOCH":22453,"BSTAR":0.0077225,"MEAN_MOTION_DOT":3.155e-05,"MEAN_MOTION_DDOT":0.0},{"OBJECT_NAME":"ONEWEB-0361","OBJECT_ID":"2021-090J","EPOCH":"2026-05-07T22:07:41.167200","MEAN_MOTION":13.20772817,"ECCENTRICITY":0.000187,"INCLINATION":87.9153,"RA_OF_ASC_NODE":282.471,"ARG_OF_PERICENTER":101.0413,"MEAN_ANOMALY":259.093,"EPHEMERIS_TYPE":0,"CLASSIFICATION_TYPE":"U","NORAD_CAT_ID":49287,"ELEMENT_SET_NO":999,"REV_AT_EPOCH":22498,"BSTAR":0.00021224000000000001,"MEAN_MOTION_DOT":9.9e-07,"MEAN_MOTION_DDOT":0.0},{"OBJECT_NAME":"ONEWEB-0362","OBJECT_ID":"2021-090K","EPOCH":"2026-05-08T01:41:00.916800","MEAN_MOTION":13.19725462,"ECCENTRICITY":0.0001542,"INCLINATION":87.9145,"RA_OF_ASC_NODE":312.9787,"ARG_OF_PERICENTER":86.199,"MEAN_ANOMALY":273.9319,"EPHEMERIS_TYPE":0,"CLASSIFICATION_TYPE":"U","NORAD_CAT_ID":49288,"ELEMENT_SET_NO":999,"REV_AT_EPOCH":22162,"BSTAR":0.00012161,"MEAN_MOTION_DOT":6.2e-07,"MEAN_MOTION_DDOT":0.0},{"OBJECT_NAME":"ONEWEB-0363","OBJECT_ID":"2021-090L","EPOCH":"2026-05-07T22:30:16.447104","MEAN_MOTION":13.20823423,"ECCENTRICITY":0.0002097,"INCLINATION":87.9157,"RA_OF_ASC_NODE":282.4683,"ARG_OF_PERICENTER":104.2843,"MEAN_ANOMALY":255.8524,"EPHEMERIS_TYPE":0,"CLASSIFICATION_TYPE":"U","NORAD_CAT_ID":49289,"ELEMENT_SET_NO":999,"REV_AT_EPOCH":22499,"BSTAR":0.012492000000000001,"MEAN_MOTION_DOT":5.099e-05,"MEAN_MOTION_DDOT":0.0},{"OBJECT_NAME":"ONEWEB-0364","OBJECT_ID":"2021-090M","EPOCH":"2026-05-07T21:35:53.769696","MEAN_MOTION":13.20755642,"ECCENTRICITY":0.0001765,"INCLINATION":87.9149,"RA_OF_ASC_NODE":282.4844,"ARG_OF_PERICENTER":95.5031,"MEAN_ANOMALY":264.6303,"EPHEMERIS_TYPE":0,"CLASSIFICATION_TYPE":"U","NORAD_CAT_ID":49290,"ELEMENT_SET_NO":999,"REV_AT_EPOCH":22612,"BSTAR":-0.003838,"MEAN_MOTION_DOT":-1.547e-05,"MEAN_MOTION_DDOT":0.0},{"OBJECT_NAME":"ONEWEB-0365","OBJECT_ID":"2021-090N","EPOCH":"2026-05-08T05:33:01.578528","MEAN_MOTION":13.19725594,"ECCENTRICITY":0.0001751,"INCLINATION":87.9157,"RA_OF_ASC_NODE":312.9314,"ARG_OF_PERICENTER":87.0071,"MEAN_ANOMALY":273.1262,"EPHEMERIS_TYPE":0,"CLASSIFICATION_TYPE":"U","NORAD_CAT_ID":49291,"ELEMENT_SET_NO":999,"REV_AT_EPOCH":22115,"BSTAR":0.0003585,"MEAN_MOTION_DOT":1.56e-06,"MEAN_MOTION_DDOT":0.0},{"OBJECT_NAME":"ONEWEB-0366","OBJECT_ID":"2021-090P","EPOCH":"2026-05-07T22:35:21.694848","MEAN_MOTION":13.14503275,"ECCENTRICITY":0.0001758,"INCLINATION":87.8925,"RA_OF_ASC_NODE":297.738,"ARG_OF_PERICENTER":96.7609,"MEAN_ANOMALY":263.3721,"EPHEMERIS_TYPE":0,"CLASSIFICATION_TYPE":"U","NORAD_CAT_ID":49292,"ELEMENT_SET_NO":999,"REV_AT_EPOCH":22227,"BSTAR":-2.8963e-05,"MEAN_MOTION_DOT":2e-08,"MEAN_MOTION_DDOT":0.0},{"OBJECT_NAME":"ONEWEB-0367","OBJECT_ID":"2021-090Q","EPOCH":"2026-05-07T22:28:08.662368","MEAN_MOTION":13.20763507,"ECCENTRICITY":0.0001523,"INCLINATION":87.9156,"RA_OF_ASC_NODE":282.4692,"ARG_OF_PERICENTER":93.7998,"MEAN_ANOMALY":266.331,"EPHEMERIS_TYPE":0,"CLASSIFICATION_TYPE":"U","NORAD_CAT_ID":49293,"ELEMENT_SET_NO":999,"REV_AT_EPOCH":22451,"BSTAR":-0.0019074,"MEAN_MOTION_DOT":-7.62e-06,"MEAN_MOTION_DDOT":0.0},{"OBJECT_NAME":"ONEWEB-0368","OBJECT_ID":"2021-090R","EPOCH":"2026-05-07T21:49:39.141984","MEAN_MOTION":13.20704225,"ECCENTRICITY":0.0002681,"INCLINATION":87.9146,"RA_OF_ASC_NODE":282.4904,"ARG_OF_PERICENTER":91.1397,"MEAN_ANOMALY":269.0043,"EPHEMERIS_TYPE":0,"CLASSIFICATION_TYPE":"U","NORAD_CAT_ID":49294,"ELEMENT_SET_NO":999,"REV_AT_EPOCH":22566,"BSTAR":-0.016529,"MEAN_MOTION_DOT":-6.696e-05,"MEAN_MOTION_DDOT":0.0},{"OBJECT_NAME":"ONEWEB-0369","OBJECT_ID":"2021-090S","EPOCH":"2026-05-08T01:47:50.455392","MEAN_MOTION":13.19724828,"ECCENTRICITY":0.0001835,"INCLINATION":87.9147,"RA_OF_ASC_NODE":312.9738,"ARG_OF_PERICENTER":88.1641,"MEAN_ANOMALY":271.9702,"EPHEMERIS_TYPE":0,"CLASSIFICATION_TYPE":"U","NORAD_CAT_ID":49295,"ELEMENT_SET_NO":999,"REV_AT_EPOCH":22112,"BSTAR":0.00015415,"MEAN_MOTION_DOT":7.5e-07,"MEAN_MOTION_DDOT":0.0},{"OBJECT_NAME":"ONEWEB-0370","OBJECT_ID":"2021-090T","EPOCH":"2026-05-07T22:41:44.162592","MEAN_MOTION":13.20778293,"ECCENTRICITY":0.0001438,"INCLINATION":87.9156,"RA_OF_ASC_NODE":282.4674,"ARG_OF_PERICENTER":98.897,"MEAN_ANOMALY":261.2326,"EPHEMERIS_TYPE":0,"CLASSIFICATION_TYPE":"U","NORAD_CAT_ID":49296,"ELEMENT_SET_NO":999,"REV_AT_EPOCH":22455,"BSTAR":0.0020544,"MEAN_MOTION_DOT":8.48e-06,"MEAN_MOTION_DDOT":0.0},{"OBJECT_NAME":"ONEWEB-0371","OBJECT_ID":"2021-090U","EPOCH":"2026-05-08T05:37:34.104864","MEAN_MOTION":13.19725567,"ECCENTRICITY":0.0001694,"INCLINATION":87.915,"RA_OF_ASC_NODE":312.9327,"ARG_OF_PERICENTER":87.6088,"MEAN_ANOMALY":272.5239,"EPHEMERIS_TYPE":0,"CLASSIFICATION_TYPE":"U","NORAD_CAT_ID":49297,"ELEMENT_SET_NO":999,"REV_AT_EPOCH":22118,"BSTAR":0.00024661,"MEAN_MOTION_DOT":1.12e-06,"MEAN_MOTION_DDOT":0.0},{"OBJECT_NAME":"ONEWEB-0372","OBJECT_ID":"2021-090V","EPOCH":"2026-05-07T22:25:49.509120","MEAN_MOTION":13.20700946,"ECCENTRICITY":0.0001655,"INCLINATION":87.9156,"RA_OF_ASC_NODE":282.4709,"ARG_OF_PERICENTER":96.9623,"MEAN_ANOMALY":263.1699,"EPHEMERIS_TYPE":0,"CLASSIFICATION_TYPE":"U","NORAD_CAT_ID":49298,"ELEMENT_SET_NO":999,"REV_AT_EPOCH":22452,"BSTAR":-0.017216000000000002,"MEAN_MOTION_DOT":-6.974e-05,"MEAN_MOTION_DDOT":0.0},{"OBJECT_NAME":"ONEWEB-0373","OBJECT_ID":"2021-090W","EPOCH":"2026-05-07T23:04:20.979552","MEAN_MOTION":13.20843487,"ECCENTRICITY":0.0001627,"INCLINATION":87.9159,"RA_OF_ASC_NODE":282.4684,"ARG_OF_PERICENTER":101.2015,"MEAN_ANOMALY":258.9302,"EPHEMERIS_TYPE":0,"CLASSIFICATION_TYPE":"U","NORAD_CAT_ID":49299,"ELEMENT_SET_NO":999,"REV_AT_EPOCH":22571,"BSTAR":0.0064686,"MEAN_MOTION_DOT":2.647e-05,"MEAN_MOTION_DDOT":0.0},{"OBJECT_NAME":"ONEWEB-0374","OBJECT_ID":"2021-090X","EPOCH":"2026-05-08T05:35:30.919200","MEAN_MOTION":13.14504423,"ECCENTRICITY":0.000232,"INCLINATION":87.8933,"RA_OF_ASC_NODE":297.6683,"ARG_OF_PERICENTER":104.7598,"MEAN_ANOMALY":255.3789,"EPHEMERIS_TYPE":0,"CLASSIFICATION_TYPE":"U","NORAD_CAT_ID":49300,"ELEMENT_SET_NO":999,"REV_AT_EPOCH":22231,"BSTAR":0.0006018099999999999,"MEAN_MOTION_DOT":2.36e-06,"MEAN_MOTION_DDOT":0.0},{"OBJECT_NAME":"ONEWEB-0375","OBJECT_ID":"2021-090Y","EPOCH":"2026-05-07T22:46:18.819552","MEAN_MOTION":13.20770542,"ECCENTRICITY":0.0002159,"INCLINATION":87.9158,"RA_OF_ASC_NODE":282.4604,"ARG_OF_PERICENTER":108.4662,"MEAN_ANOMALY":251.6707,"EPHEMERIS_TYPE":0,"CLASSIFICATION_TYPE":"U","NORAD_CAT_ID":49301,"ELEMENT_SET_NO":999,"REV_AT_EPOCH":22521,"BSTAR":-0.00012185000000000001,"MEAN_MOTION_DOT":-3.7e-07,"MEAN_MOTION_DDOT":0.0},{"OBJECT_NAME":"ONEWEB-0376","OBJECT_ID":"2021-090Z","EPOCH":"2026-05-08T05:35:17.104704","MEAN_MOTION":13.19726133,"ECCENTRICITY":0.0001808,"INCLINATION":87.9156,"RA_OF_ASC_NODE":312.931,"ARG_OF_PERICENTER":83.4981,"MEAN_ANOMALY":276.6358,"EPHEMERIS_TYPE":0,"CLASSIFICATION_TYPE":"U","NORAD_CAT_ID":49302,"ELEMENT_SET_NO":999,"REV_AT_EPOCH":22118,"BSTAR":5.2679e-05,"MEAN_MOTION_DOT":3.4e-07,"MEAN_MOTION_DDOT":0.0},{"OBJECT_NAME":"ONEWEB-0377","OBJECT_ID":"2021-090AA","EPOCH":"2026-05-07T22:26:12.956352","MEAN_MOTION":13.20706961,"ECCENTRICITY":0.0001585,"INCLINATION":87.9155,"RA_OF_ASC_NODE":282.4636,"ARG_OF_PERICENTER":104.4144,"MEAN_ANOMALY":255.7165,"EPHEMERIS_TYPE":0,"CLASSIFICATION_TYPE":"U","NORAD_CAT_ID":49303,"ELEMENT_SET_NO":999,"REV_AT_EPOCH":22520,"BSTAR":-0.016397000000000002,"MEAN_MOTION_DOT":-6.643e-05,"MEAN_MOTION_DDOT":0.0},{"OBJECT_NAME":"ONEWEB-0378","OBJECT_ID":"2021-090AB","EPOCH":"2026-05-08T04:24:52.966368","MEAN_MOTION":13.20871373,"ECCENTRICITY":0.0001959,"INCLINATION":87.9149,"RA_OF_ASC_NODE":282.4225,"ARG_OF_PERICENTER":97.4008,"MEAN_ANOMALY":262.7348,"EPHEMERIS_TYPE":0,"CLASSIFICATION_TYPE":"U","NORAD_CAT_ID":49304,"ELEMENT_SET_NO":999,"REV_AT_EPOCH":22450,"BSTAR":0.014066000000000002,"MEAN_MOTION_DOT":5.744e-05,"MEAN_MOTION_DDOT":0.0},{"OBJECT_NAME":"ONEWEB-0379","OBJECT_ID":"2021-090AC","EPOCH":"2026-05-07T22:10:14.645568","MEAN_MOTION":13.145035,"ECCENTRICITY":0.0001932,"INCLINATION":87.8928,"RA_OF_ASC_NODE":297.7418,"ARG_OF_PERICENTER":97.2494,"MEAN_ANOMALY":262.8856,"EPHEMERIS_TYPE":0,"CLASSIFICATION_TYPE":"U","NORAD_CAT_ID":49305,"ELEMENT_SET_NO":999,"REV_AT_EPOCH":22227,"BSTAR":0.00055494,"MEAN_MOTION_DOT":2.19e-06,"MEAN_MOTION_DDOT":0.0}]